{
  "type": "FeatureCollection",
  "features": [
    {
      "type": "Feature",
      "properties": {
        "norad_id": 34070,
        "name": "COSMOS 2251 DEB",
        "group": "cosmos-2251-debris",
        "lat": -37.229117589624856,
        "lon": -44.19377654236051,
        "alt_km": 632.8896396975588,
        "timestamp": "2025-12-09T04:51:47.885142+00:00",
        "meta_object_name": "COSMOS 2251 DEB",
        "meta_object_id": "1993-036KH",
        "meta_epoch": "2025-12-08T20:28:07.198176",
        "meta_mean_motion": 14.76801297,
        "meta_eccentricity": 0.0018944,
        "meta_inclination": 74.0011,
        "meta_ra_of_asc_node": 123.9006,
        "meta_arg_of_pericenter": 239.346,
        "meta_mean_anomaly": 280.8162,
        "meta_ephemeris_type": 0,
        "meta_classification_type": "U",
        "meta_norad_cat_id": 34070,
        "meta_element_set_no": 999,
        "meta_rev_at_epoch": 88553,
        "meta_bstar": 0.0043754,
        "meta_mean_motion_dot": 0.00030898,
        "meta_mean_motion_ddot": 0,
        "tle_line1": "1 34070U 93036KH  25342.85286109  .00030898  00000+0  43754-2 0  9992",
        "tle_line2": "2 34070  74.0011 123.9006 0018944 239.3460 280.8162 14.76801297885534"
      },
      "geometry": {
        "type": "Point",
        "coordinates": [
          -44.19377654236051,
          -37.229117589624856
        ]
      }
    },
    {
      "type": "Feature",
      "properties": {
        "norad_id": 34114,
        "name": "COSMOS 2251 DEB",
        "group": "cosmos-2251-debris",
        "lat": -30.210197342174588,
        "lon": 40.95346864881418,
        "alt_km": 703.6334183626714,
        "timestamp": "2025-12-09T04:51:47.885152+00:00",
        "meta_object_name": "COSMOS 2251 DEB",
        "meta_object_id": "1993-036KK",
        "meta_epoch": "2025-12-08T07:54:05.737248",
        "meta_mean_motion": 14.56283741,
        "meta_eccentricity": 0.00473197,
        "meta_inclination": 74.0585,
        "meta_ra_of_asc_node": 52.1873,
        "meta_arg_of_pericenter": 48.4141,
        "meta_mean_anomaly": 23.5895,
        "meta_ephemeris_type": 0,
        "meta_classification_type": "U",
        "meta_norad_cat_id": 34114,
        "meta_element_set_no": 999,
        "meta_rev_at_epoch": 87737,
        "meta_bstar": 0.0020644256,
        "meta_mean_motion_dot": 9.263e-05,
        "meta_mean_motion_ddot": 0,
        "tle_line1": "1 34114U 93036KK  25342.32923307  .00009263  00000+0  20644-2 0  9996",
        "tle_line2": "2 34114  74.0585  52.1873 0047319  48.4141  23.5895 14.56283741877371"
      },
      "geometry": {
        "type": "Point",
        "coordinates": [
          40.95346864881418,
          -30.210197342174588
        ]
      }
    },
    {
      "type": "Feature",
      "properties": {
        "norad_id": 34115,
        "name": "COSMOS 2251 DEB",
        "group": "cosmos-2251-debris",
        "lat": 30.20461989569917,
        "lon": 59.30471008810744,
        "alt_km": 624.0551563747076,
        "timestamp": "2025-12-09T04:51:47.885162+00:00",
        "meta_object_name": "COSMOS 2251 DEB",
        "meta_object_id": "1993-036KL",
        "meta_epoch": "2025-12-08T18:27:36.415008",
        "meta_mean_motion": 14.79392365,
        "meta_eccentricity": 0.0028334,
        "meta_inclination": 74.0066,
        "meta_ra_of_asc_node": 249.77,
        "meta_arg_of_pericenter": 74.5133,
        "meta_mean_anomaly": 285.9169,
        "meta_ephemeris_type": 0,
        "meta_classification_type": "U",
        "meta_norad_cat_id": 34115,
        "meta_element_set_no": 999,
        "meta_rev_at_epoch": 89353,
        "meta_bstar": 0.0015372,
        "meta_mean_motion_dot": 0.00011527,
        "meta_mean_motion_ddot": 0,
        "tle_line1": "1 34115U 93036KL  25342.76917147  .00011527  00000+0  15372-2 0  9998",
        "tle_line2": "2 34115  74.0066 249.7700 0028334  74.5133 285.9169 14.79392365893538"
      },
      "geometry": {
        "type": "Point",
        "coordinates": [
          59.30471008810744,
          30.20461989569917
        ]
      }
    },
    {
      "type": "Feature",
      "properties": {
        "norad_id": 34116,
        "name": "COSMOS 2251 DEB",
        "group": "cosmos-2251-debris",
        "lat": 73.9440617194521,
        "lon": -86.63871181368171,
        "alt_km": 717.2118275355442,
        "timestamp": "2025-12-09T04:51:47.885172+00:00",
        "meta_object_name": "COSMOS 2251 DEB",
        "meta_object_id": "1993-036KM",
        "meta_epoch": "2025-12-08T20:15:50.418720",
        "meta_mean_motion": 14.52943726,
        "meta_eccentricity": 0.0012125,
        "meta_inclination": 74.0399,
        "meta_ra_of_asc_node": 190.1237,
        "meta_arg_of_pericenter": 266.2211,
        "meta_mean_anomaly": 108.7279,
        "meta_ephemeris_type": 0,
        "meta_classification_type": "U",
        "meta_norad_cat_id": 34116,
        "meta_element_set_no": 999,
        "meta_rev_at_epoch": 88430,
        "meta_bstar": 0.0011836,
        "meta_mean_motion_dot": 4.858e-05,
        "meta_mean_motion_ddot": 0,
        "tle_line1": "1 34116U 93036KM  25342.84433355  .00004858  00000+0  11836-2 0  9992",
        "tle_line2": "2 34116  74.0399 190.1237 0012125 266.2211 108.7279 14.52943726884303"
      },
      "geometry": {
        "type": "Point",
        "coordinates": [
          -86.63871181368171,
          73.9440617194521
        ]
      }
    },
    {
      "type": "Feature",
      "properties": {
        "norad_id": 34117,
        "name": "COSMOS 2251 DEB",
        "group": "cosmos-2251-debris",
        "lat": 71.5488296496549,
        "lon": 49.421933534509726,
        "alt_km": 713.3900754149226,
        "timestamp": "2025-12-09T04:51:47.885182+00:00",
        "meta_object_name": "COSMOS 2251 DEB",
        "meta_object_id": "1993-036KN",
        "meta_epoch": "2025-12-08T18:29:22.219584",
        "meta_mean_motion": 14.39987445,
        "meta_eccentricity": 0.0054427,
        "meta_inclination": 74.0405,
        "meta_ra_of_asc_node": 351.162,
        "meta_arg_of_pericenter": 68.7168,
        "meta_mean_anomaly": 291.9786,
        "meta_ephemeris_type": 0,
        "meta_classification_type": "U",
        "meta_norad_cat_id": 34117,
        "meta_element_set_no": 999,
        "meta_rev_at_epoch": 88066,
        "meta_bstar": 0.0011148,
        "meta_mean_motion_dot": 3.548e-05,
        "meta_mean_motion_ddot": 0,
        "tle_line1": "1 34117U 93036KN  25342.77039606  .00003548  00000+0  11148-2 0  9997",
        "tle_line2": "2 34117  74.0405 351.1620 0054427  68.7168 291.9786 14.39987445880668"
      },
      "geometry": {
        "type": "Point",
        "coordinates": [
          49.421933534509726,
          71.5488296496549
        ]
      }
    },
    {
      "type": "Feature",
      "properties": {
        "norad_id": 34118,
        "name": "COSMOS 2251 DEB",
        "group": "cosmos-2251-debris",
        "lat": -6.970286388101329,
        "lon": 78.47824317700085,
        "alt_km": 596.4989192131716,
        "timestamp": "2025-12-09T04:51:47.885193+00:00",
        "meta_object_name": "COSMOS 2251 DEB",
        "meta_object_id": "1993-036KP",
        "meta_epoch": "2025-12-08T20:16:47.105760",
        "meta_mean_motion": 14.93699744,
        "meta_eccentricity": 0.0060002,
        "meta_inclination": 73.9523,
        "meta_ra_of_asc_node": 257.1847,
        "meta_arg_of_pericenter": 88.5044,
        "meta_mean_anomaly": 335.5634,
        "meta_ephemeris_type": 0,
        "meta_classification_type": "U",
        "meta_norad_cat_id": 34118,
        "meta_element_set_no": 999,
        "meta_rev_at_epoch": 89118,
        "meta_bstar": 0.0025407,
        "meta_mean_motion_dot": 0.00027926,
        "meta_mean_motion_ddot": 0,
        "tle_line1": "1 34118U 93036KP  25342.84498965  .00027926  00000+0  25407-2 0  9992",
        "tle_line2": "2 34118  73.9523 257.1847 0060002  88.5044 335.5634 14.93699744891181"
      },
      "geometry": {
        "type": "Point",
        "coordinates": [
          78.47824317700085,
          -6.970286388101329
        ]
      }
    },
    {
      "type": "Feature",
      "properties": {
        "norad_id": 34120,
        "name": "COSMOS 2251 DEB",
        "group": "cosmos-2251-debris",
        "lat": 3.5287713245458665,
        "lon": -136.63830605725693,
        "alt_km": 809.0461087127742,
        "timestamp": "2025-12-09T04:51:47.885203+00:00",
        "meta_object_name": "COSMOS 2251 DEB",
        "meta_object_id": "1993-036KR",
        "meta_epoch": "2025-12-08T18:51:27.985248",
        "meta_mean_motion": 13.98677634,
        "meta_eccentricity": 0.0181784,
        "meta_inclination": 73.9918,
        "meta_ra_of_asc_node": 223.0692,
        "meta_arg_of_pericenter": 51.6433,
        "meta_mean_anomaly": 15.2877,
        "meta_ephemeris_type": 0,
        "meta_classification_type": "U",
        "meta_norad_cat_id": 34120,
        "meta_element_set_no": 999,
        "meta_rev_at_epoch": 85925,
        "meta_bstar": 0.00063446,
        "meta_mean_motion_dot": 1.027e-05,
        "meta_mean_motion_ddot": 0,
        "tle_line1": "1 34120U 93036KR  25342.78574057  .00001027  00000+0  63446-3 0  9995",
        "tle_line2": "2 34120  73.9918 223.0692 0181784  51.6433  15.2877 13.98677634859257"
      },
      "geometry": {
        "type": "Point",
        "coordinates": [
          -136.63830605725693,
          3.5287713245458665
        ]
      }
    }
  ]
}